OBJECT_NAME,OBJECT_ID,EPOCH,MEAN_MOTION,ECCENTRICITY,INCLINATION,RA_OF_ASC_NODE,ARG_OF_PERICENTER,MEAN_ANOMALY,EPHEMERIS_TYPE,CLASSIFICATION_TYPE,NORAD_CAT_ID,ELEMENT_SET_NO,REV_AT_EPOCH,BSTAR,MEAN_MOTION_DOT,MEAN_MOTION_DDOT
STARLINK-36494,2026-002AC,2026-07-22T13:11:37.249152,15.27600192,.00019682,43.0009,283.6804,269.9942,90.0685,0,U,67331,999,3186,.5912581E-3,.16054E-3,0
STARLINK-36492,2026-002AD,2026-07-22T13:48:37.560672,15.27606830,.00015358,42.9984,283.8730,271.3479,88.7197,0,U,67332,999,3186,.67361183E-3,.18336E-3,0
STARLINK-36427,2026-002AE,2026-07-22T13:15:19.825056,15.27609259,.0001336,43.0006,283.6884,346.4079,13.6736,0,U,67333,999,3176,.10628502E-2,.29127E-3,0
STARLINK-35343,2026-003A,2026-07-21T06:37:30.797760,15.27584950,.0001084,42.9967,192.6906,270.8418,89.2310,0,U,67334,999,2925,.25634378E-3,.68E-4,0
STARLINK-36486,2026-003B,2026-07-22T08:46:42.313728,15.27602260,.00019791,42.9959,186.2503,256.0505,104.0126,0,U,67335,999,2942,.83359565E-3,.22764E-3,0
STARLINK-36480,2026-003C,2026-07-21T22:30:10.838880,15.27604709,.00014958,42.9995,189.0608,300.5589,59.5115,0,U,67336,999,2935,.87603569E-3,.23941E-3,0
STARLINK-36410,2026-003D,2026-07-22T08:21:01.118304,15.27596644,.00017351,43.0013,186.9834,261.2928,98.7727,0,U,67337,999,2941,.45909363E-3,.12399E-3,0
STARLINK-36413,2026-003E,2026-07-21T22:44:59.660736,15.27556069,.00008868,42.9979,189.1418,318.1083,41.9700,0,U,67338,999,2935,-.12835869E-3,-.379E-4,0
STARLINK-36451,2026-003F,2026-07-21T22:24:37.889568,15.27604600,.00011719,42.9973,189.0289,287.5650,72.5074,0,U,67339,999,2935,.10624353E-2,.29111E-3,0
STARLINK-36339,2026-003G,2026-07-21T23:47:41.716320,15.27618263,.00013428,42.9981,188.5995,263.0337,97.0362,0,U,67340,999,2936,.63270327E-3,.1721E-3,0
STARLINK-36453,2026-003H,2026-07-21T23:42:07.156512,15.27605706,.00013086,42.9984,188.5695,274.0917,85.9785,0,U,67341,999,2936,.76791654E-3,.20946E-3,0
STARLINK-36432,2026-003J,2026-07-21T23:10:39.259488,15.27570873,.00015233,42.9979,188.4046,272.9773,87.0904,0,U,67342,999,2936,.63784066E-3,.17326E-3,0
STARLINK-36458,2026-003K,2026-07-22T07:23:39.768288,15.27598954,.00015497,43.0001,186.6731,274.1637,85.9038,0,U,67343,999,2941,.65346176E-3,.17774E-3,0
STARLINK-36422,2026-003L,2026-07-22T07:07:00.062400,15.27617698,.00013565,43.0000,186.5857,279.4895,80.5803,0,U,67344,999,2941,.93234007E-3,.25512E-3,0
STARLINK-35676,2026-003M,2026-07-22T07:18:06.389568,15.27590684,.00011268,42.9987,186.6439,276.1530,83.9193,0,U,67345,999,2941,.52279029E-3,.14156E-3,0
STARLINK-36472,2026-003N,2026-07-21T22:41:17.097792,15.27620551,.00018881,43.0017,189.1185,272.9731,87.0904,0,U,67346,999,2934,.6562031E-3,.17861E-3,0
STARLINK-36420,2026-003P,2026-07-21T22:26:29.141664,15.27607086,.00014359,42.9989,189.0370,282.0066,78.0625,0,U,67347,999,2935,.56422458E-3,.15309E-3,0
STARLINK-36467,2026-003Q,2026-07-21T22:32:01.678848,15.27593902,.00013074,42.9999,189.0677,266.2883,93.7819,0,U,67348,999,2935,.53914244E-3,.1461E-3,0
STARLINK-36457,2026-003R,2026-07-21T23:43:58.836288,15.27595461,.00010008,42.9989,188.5773,267.9672,92.1066,0,U,67349,999,2936,.7292285E-3,.19868E-3,0
STARLINK-36475,2026-003S,2026-07-22T08:48:33.759360,15.27604475,.00011987,42.9992,186.2567,278.2170,81.8545,0,U,67350,999,2942,.65722173E-3,.17881E-3,0
STARLINK-36478,2026-003T,2026-07-21T07:30:58.282848,15.27582668,.0001798,42.9994,192.1031,277.0752,82.9895,0,U,67351,999,2926,.43427624E-3,.11708E-3,0
STARLINK-36479,2026-003U,2026-07-21T08:55:51.870432,15.27595802,.00013484,43.0007,191.6868,274.1040,85.9658,0,U,67352,999,2927,.69315948E-3,.1887E-3,0
STARLINK-36474,2026-003V,2026-07-22T08:22:52.650336,15.27596827,.00028285,43.0042,186.9894,264.0991,95.9538,0,U,67353,999,2941,.3430993E-3,.9196E-4,0
STARLINK-36448,2026-003W,2026-07-21T23:55:04.975968,15.27592975,.00016505,43.0002,188.6361,279.5509,80.5156,0,U,67354,999,2936,.53980526E-3,.14628E-3,0
STARLINK-36477,2026-003X,2026-07-21T22:52:22.932480,15.27600399,.00006005,42.9993,189.1762,276.6368,83.4415,0,U,67355,999,2935,.59389748E-3,.16127E-3,0
STARLINK-36429,2026-003Y,2026-07-21T22:46:49.853568,15.27603071,.0001711,43.0006,189.1471,283.5034,76.5627,0,U,67356,999,2935,.6408734E-3,.17428E-3,0
STARLINK-36456,2026-003Z,2026-07-21T23:49:31.689696,15.27601887,.00011209,42.9980,188.6042,266.3634,93.7089,0,U,67357,999,2936,.70628535E-3,.19237E-3,0
STARLINK-36466,2026-003AA,2026-07-22T07:08:50.716608,15.27607163,.00023306,43.0018,186.5887,250.6918,109.3682,0,U,67358,999,2941,.8498089E-3,.23216E-3,0
STARLINK-36499,2026-003AB,2026-07-21T22:59:47.032800,15.27596266,.00017895,43.0001,189.2145,285.0928,74.9726,0,U,67359,999,2935,.61614029E-3,.1674E-3,0
STARLINK-36469,2026-003AC,2026-07-21T22:54:13.838112,15.27597259,.00011337,42.9989,189.1829,270.6340,89.4382,0,U,67360,999,2935,.75457167E-3,.20571E-3,0
STARLINK-35306,2026-003AD,2026-07-21T23:40:16.935168,15.27608614,.00005255,42.9939,188.5552,3.7884,356.2972,0,U,67361,999,2936,.98238207E-3,.26893E-3,0
STARLINK-36428,2026-003AE,2026-07-21T15:45:47.354112,15.27598838,.00021548,43.0011,190.3795,275.3963,84.6643,0,U,67362,999,2931,.61379698E-3,.16676E-3,0
LEMUR-2 FIKRETDENGIZ,2026-004A,2026-07-21T22:58:16.777632,14.88552806,.00097015,97.8036,200.9883,36.3875,323.7999,0,U,67363,999,2845,.4489565E-3,.4126E-4,0
TWILIGHT-1 OBJECT B,2026-004B,2026-07-20T23:43:51.115584,14.87805943,.00093149,97.8078,200.0319,28.9865,331.1867,0,U,67364,999,2831,.12739587E-3,.111E-4,0
LEMUR-2-MARIO-SOUSA,2026-004C,2026-07-22T00:04:40.844064,14.88766843,.00093322,97.8006,201.0285,37.9067,322.2806,0,U,67365,999,2847,.51529913E-3,.477E-4,0
LEMUR-2 CALLUM-K-J,2026-004D,2026-07-22T05:24:35.635680,14.88515068,.00095442,97.8031,201.2560,31.8160,328.3632,0,U,67366,999,2850,.46829887E-3,.4302E-4,0
LEMUR-2-SONNENBLUME,2026-004E,2026-07-22T11:28:14.899872,14.88479437,.00089422,97.8005,201.4656,37.3147,322.8689,0,U,67367,999,2854,.23521935E-3,.2131E-4,0
LEMUR-2-WOBLER,2026-004F,2026-07-22T11:11:04.370784,14.88733930,.00088928,97.8058,201.6124,29.1294,331.0417,0,U,67368,999,2854,.40787272E-3,.376E-4,0
BLACKCAT,2026-004G,2026-07-21T22:14:39.753600,14.87756517,.00082389,97.7998,200.7866,41.0197,319.1638,0,U,67369,999,2845,.13388242E-3,.1168E-4,0
LEMUR-2-GRAM-E-SUE,2026-004H,2026-07-22T11:00:32.558688,14.88613346,.00081627,97.7993,201.4636,40.9903,319.1926,0,U,67370,999,2854,.21044502E-3,.1907E-4,0
UMBRA-12,2026-004J,2026-07-21T05:37:58.401408,14.89564031,.00069674,97.8033,200.5399,36.5519,323.6173,0,U,67371,999,2837,.32527927E-3,.3049E-4,0
ICEYE-X63,2026-004K,2026-07-21T10:28:48.491040,14.88356623,.00050004,97.8017,200.5436,35.6855,324.4696,0,U,67372,999,2839,.75999258E-4,.649E-5,0
ICEYE-X64,2026-004L,2026-07-22T05:26:17.882304,14.87998679,.00067695,97.8031,201.2377,34.9542,325.2118,0,U,67373,999,2850,.1090855E-3,.947E-5,0
AETHER-3,2026-004M,2026-07-21T10:54:31.784256,14.88032718,.00046652,97.8019,200.5169,38.4372,321.7176,0,U,67374,999,2839,.62299407E-4,.518E-5,0
AETHER-4,2026-004N,2026-07-22T07:45:35.241120,14.86291183,.00030062,97.8054,201.3154,96.8265,263.3293,0,U,67375,999,2851,.65671782E-4,.525E-5,0
AETHER-5,2026-004P,2026-07-21T22:52:23.003328,14.86314201,.00041243,97.8053,200.8698,43.4318,316.7222,0,U,67376,999,2845,.6768782E-4,.543E-5,0
AETHER-6,2026-004Q,2026-07-22T11:18:43.162560,14.86322889,.00037905,97.8053,201.4285,49.5403,310.6142,0,U,67377,999,2852,.58524654E-4,.462E-5,0
AETHER-7,2026-004R,2026-07-21T10:15:44.788608,14.86337664,.00038769,97.8011,200.2595,36.3898,323.7581,0,U,67378,999,2836,.60554852E-4,.48E-5,0
AETHER-8,2026-004S,2026-07-22T10:00:58.705632,14.86323636,.00034408,97.8031,201.2907,73.8343,286.3251,0,U,67379,999,2851,.6313026E-4,.503E-5,0
AETHER-9,2026-004T,2026-07-22T00:09:27.353376,14.86327321,.00032142,97.8020,200.8836,92.0570,268.1014,0,U,67380,999,2845,.67152402E-4,.538E-5,0
AETHER-10,2026-004U,2026-07-22T10:49:41.474208,14.86312842,.0002906,97.8058,201.4668,70.9036,289.2494,0,U,67381,999,2852,.65322794E-4,.522E-5,0
AETHER-11,2026-004V,2026-07-21T10:25:27.225696,14.86281868,.00025584,97.8048,200.4636,99.0811,261.0694,0,U,67382,999,2837,.59089019E-4,.467E-5,0
AETHER-12,2026-004W,2026-07-21T23:01:43.148352,14.86327784,.00041518,97.8026,200.8007,34.0350,326.1131,0,U,67383,999,2844,.70620417E-4,.569E-5,0
CAPELLA-19 (ACADIA-9),2026-004X,2026-07-22T11:13:34.063104,14.86662039,.00015234,97.8014,201.2037,96.2052,263.9337,0,U,67384,999,2851,.52383174E-3,.46E-4,0
CAPELLA-18 (ACADIA-8),2026-004Y,2026-07-22T00:09:35.499168,14.86647492,.00013772,97.8017,200.9045,89.8089,270.3284,0,U,67385,999,2845,.46582496E-3,.4083E-4,0
TWILIGHT-1 OBJECT Z,2026-004Z,2026-07-22T10:52:32.363904,14.88962633,.000359,97.8011,201.6721,39.2151,320.9326,0,U,67386,999,2854,.15865485E-3,.1436E-4,0
LEMUR-2-KATIE,2026-004AA,2026-07-22T00:06:45.419904,14.90291770,.00028568,97.8052,201.5905,16.6721,343.4590,0,U,67387,999,2849,.51102937E-3,.491E-4,0
LEMUR-2-HCS-BAZUS,2026-004AB,2026-07-22T00:04:19.838496,14.90297048,.0002352,97.8040,201.5664,18.3461,341.7841,0,U,67388,999,2849,.43493159E-3,.4171E-4,0
HYDRA-2,2026-004AC,2026-07-22T10:42:41.816448,15.18938547,.00027667,97.4598,202.0491,176.9412,183.1840,0,U,67389,999,2910,.22242983E-3,.4578E-4,0
CONNECTA IOT-16,2026-004AD,2026-07-22T05:59:49.770240,15.18050416,.00029746,97.4603,201.7029,193.1403,166.9754,0,U,67390,999,2906,.11117281E-3,.2196E-4,0
FLAMINGO-1,2026-004AE,2026-07-21T07:24:33.064128,15.17747701,.00051928,97.4564,200.7064,191.4665,168.6452,0,U,67391,999,2892,.64119631E-4,.1227E-4,0
HAWK-13A,2026-004AF,2026-07-21T21:42:04.162176,15.19395310,.00048082,97.4453,201.2843,192.2508,167.8611,0,U,67392,999,2903,.1881416E-3,.3914E-4,0
HAWK-13C,2026-004AG,2026-07-21T21:41:52.410912,15.19391765,.00046345,97.4600,201.7213,195.2268,164.8828,0,U,67393,999,2903,.18843265E-3,.392E-4,0
TWILIGHT-1 OBJECT AH,2026-004AH,2026-07-22T10:58:31.829376,15.19680877,.00078123,97.4510,202.0907,201.5353,158.5554,0,U,67394,999,2912,.17631348E-3,.3696E-4,0
